{
    "links": {
        "self": "http://www.neowsapp.com/rest/v1/neo/3735455?api_key=iIulBulltgU6a56xZRHN4H3l9WmuAYTsLGpBGhQ2"
    },
    "id": "3735455",
    "neo_reference_id": "3735455",
    "name": "(2015 WR1)",
    "designation": "2015 WR1",
    "nasa_jpl_url": "http://ssd.jpl.nasa.gov/sbdb.cgi?sstr=3735455",
    "absolute_magnitude_h": 22.4,
    "estimated_diameter": {
        "kilometers": {
            "estimated_diameter_min": 0.0880146521,
            "estimated_diameter_max": 0.1968067451
        },
        "meters": {
            "estimated_diameter_min": 88.0146520901,
            "estimated_diameter_max": 196.8067450894
        },
        "miles": {
            "estimated_diameter_min": 0.0546897524,
            "estimated_diameter_max": 0.122290004
        },
        "feet": {
            "estimated_diameter_min": 288.7619911632,
            "estimated_diameter_max": 645.6914415591
        }
    },
    "is_potentially_hazardous_asteroid": false,
    "close_approach_data": [
        {
            "close_approach_date": "2015-11-13",
            "close_approach_date_full": "2015-Nov-13 19:50",
            "epoch_date_close_approach": 1447444200000,
            "relative_velocity": {
                "kilometers_per_second": "5.7534521355",
                "kilometers_per_hour": "20712.4276877317",
                "miles_per_hour": "12869.8970818575"
            },
            "miss_distance": {
                "astronomical": "0.2640368644",
                "lunar": "102.7103402516",
                "kilometers": "39499352.515718828",
                "miles": "24543759.5440147064"
            },
            "orbiting_body": "Earth"
        }
    ],
    "orbital_data": {
        "orbit_id": "7",
        "orbit_determination_date": "2017-04-06 08:30:29",
        "first_observation_date": "2015-11-19",
        "last_observation_date": "2015-12-03",
        "data_arc_in_days": 14,
        "observations_used": 51,
        "orbit_uncertainty": "7",
        "minimum_orbit_intersection": ".216768",
        "jupiter_tisserand_invariant": "3.493",
        "epoch_osculation": "2459000.5",
        "eccentricity": ".4577679416715585",
        "semi_major_axis": "2.21875502480807",
        "inclination": "8.544904208174017",
        "ascending_node_longitude": "244.5761173501279",
        "orbital_period": "1207.15338849212",
        "perihelion_distance": "1.203080104028252",
        "perihelion_argument": "168.7995564840868",
        "aphelion_distance": "3.234429945587888",
        "perihelion_time": "2458559.654756871800",
        "mean_anomaly": "131.46986044946",
        "mean_motion": ".2982222503220434",
        "equinox": "J2000",
        "orbit_class": {
            "orbit_class_type": "AMO",
            "orbit_class_description": "Near-Earth asteroid orbits similar to that of 1221 Amor",
            "orbit_class_range": "1.017 AU < q (perihelion) < 1.3 AU"
        }
    },
    "is_sentry_object": false
}